ONEWEB-0130             
1 47276U 20100U   26163.23445284 -.00000299  00000+0 -86781-3 0  9993
2 47276  87.8948 351.6369 0001722  91.8557 268.2769 13.12442746263995
ONEWEB-0131             
1 47277U 20100V   26163.23105715 -.00000230  00000+0 -67579-3 0  9995
2 47277  87.8937 351.6564 0001749  89.7476 270.3853 13.12442855264031
ONEWEB-0132             
1 47278U 20100W   26163.25986881 -.00000089  00000+0 -28349-3 0  9993
2 47278  87.8940 351.6527 0001736  89.0372 271.0956 13.12444665263930
ONEWEB-0133             
1 47279U 20100X   26163.04795665  .00000464  00000+0  12540-2 0  9999
2 47279  87.8950 351.6702 0001651  87.2845 272.8473 13.12444643264062
ONEWEB-0134             
1 47280U 20100Y   26163.24630338 -.00000630  00000+0 -17867-2 0  9992
2 47280  87.8951 351.6279 0001603  96.1823 263.9489 13.12442285264064
ONEWEB-0135             
1 47281U 20100Z   26163.21751029  .00000261  00000+0  69106-3 0  9993
2 47281  87.8938 351.6570 0001485  92.5738 267.5561 13.12442832264088
ONEWEB-0136             
1 47282U 20100AA  26163.23613987 -.00000345  00000+0 -99409-3 0  9990
2 47282  87.8945 351.6339 0001552  97.0427 263.0878 13.12443200264015
ONEWEB-0137             
1 47283U 20100AB  26163.27002859  .00000255  00000+0  67211-3 0  9999
2 47283  87.8950 351.6375 0001944  89.2177 270.9174 13.12444684263924
ONEWEB-0138             
1 47284U 20100AC  26163.24800463 -.00000415  00000+0 -11891-2 0  9996
2 47284  87.8949 351.6473 0001673  96.8801 263.2518 13.12443995264000
ONEWEB-0139             
1 47285U 20100AD  26163.21256754  .00000360  00000+0  96502-3 0  9992
2 47285  87.8946 351.6408 0001784  91.2105 268.9228 13.12443578264079
ONEWEB-0140             
1 47286U 20100AE  26163.24291914 -.00000462  00000+0 -13199-2 0  9998
2 47286  87.8948 351.6257 0001681  85.8945 274.2375 13.12443066264043
ONEWEB-0141             
1 47287U 20100AF  26163.21229204  .00000352  00000+0  94261-3 0  9995
2 47287  87.8948 351.6367 0002117  90.2517 269.8854 13.12443597264025
ONEWEB-0142             
1 47288U 20100AG  26163.04825592  .00000449  00000+0  12130-2 0  9990
2 47288  87.8941 351.6912 0002079  98.8881 261.2483 13.12442944263994
ONEWEB-0143             
1 47289U 20100AH  26163.05826287  .00000394  00000+0  10601-2 0  9994
2 47289  87.8947 351.6877 0001829  89.4668 270.6670 13.12443407263977
ONEWEB-0144             
1 47290U 20100AJ  26163.25818309 -.00000096  00000+0 -30113-3 0  9996
2 47290  87.8952 351.6219 0001771 102.1471 257.9857 13.12445129263929
ONEWEB-0145             
1 47291U 20100AK  26163.22936836 -.00000177  00000+0 -52855-3 0  9997
2 47291  87.8940 351.6555 0001807  92.3106 267.8229 13.12442786264116
ONEWEB-0146             
1 47292U 20100AL  26163.22598410 -.00000032  00000+0 -12517-3 0  9991
2 47292  87.8947 351.6477 0001749  78.4780 281.6544 13.12442753264023
ONEWEB-0147             
1 47293U 20100AM  26163.26833452  .00000265  00000+0  70035-3 0  9999
2 47293  87.8948 351.6212 0001653  90.5016 269.6302 13.12444814263929
ONEWEB-0115             
1 48042U 21025A   26163.14799635 -.00000169  00000+0 -49862-3 0  9999
2 48042  87.8953 321.2264 0001772  93.5555 266.5777 13.13469812252938
ONEWEB-0152             
1 48043U 21025B   26162.93300264 -.00000268  00000+0 -76793-3 0  9995
2 48043  87.8955 321.2661 0001746  91.8700 268.2629 13.13469898252867
ONEWEB-0153             
1 48044U 21025C   26163.13952938  .00000022  00000+0  24307-4 0  9991
2 48044  87.8949 321.2282 0001853  97.4917 262.6423 13.13469958252880
ONEWEB-0154             
1 48045U 21025D   26162.98378928  .00000058  00000+0  12320-3 0  9995
2 48045  87.8951 321.2566 0001701  95.4774 264.6549 13.13469242252821
ONEWEB-0116             
1 48046U 21025E   26162.94653512 -.00000031  00000+0 -11968-3 0  9997
2 48046  87.8956 321.2607 0001735  92.2534 267.8794 13.13468986252965
ONEWEB-0150             
1 48047U 21025F   26163.15137921 -.00000284  00000+0 -81189-3 0  9995
2 48047  87.8957 321.2170 0002011  93.9700 266.1659 13.13469320252889
ONEWEB-0107             
1 48048U 21025G   26163.15307234 -.00000356  00000+0 -10092-2 0  9996
2 48048  87.8960 321.2127 0001947 102.5758 257.5589 13.13469130252866
ONEWEB-0101             
1 48049U 21025H   26163.19200986  .00000310  00000+0  81420-3 0  9999
2 48049  87.8947 321.2212 0001732 100.2302 259.9022 13.13470351252842
ONEWEB-0113             
1 48050U 21025J   26162.98950990 -.00000111  00000+0 -33787-3 0  9998
2 48050  87.8952 321.1721 0001833  92.7246 267.4093 13.13894036252929
ONEWEB-0112             
1 48051U 21025K   26163.15815000 -.00000348  00000+0 -98662-3 0  9996
2 48051  87.8958 321.2098 0001723 103.2606 256.8716 13.13469851252938
ONEWEB-0156             
1 48052U 21025L   26163.16661191 -.00000316  00000+0 -89916-3 0  9995
2 48052  87.8957 321.2182 0001934  98.2394 261.8954 13.13469884252917
ONEWEB-0161             
1 48053U 21025M   26162.98886621 -.00000095  00000+0 -29413-3 0  9992
2 48053  87.8957 321.2547 0001928  99.5203 260.6144 13.13469921252829
