OBJECT_NAME,OBJECT_ID,EPOCH,MEAN_MOTION,ECCENTRICITY,INCLINATION,RA_OF_ASC_NODE,ARG_OF_PERICENTER,MEAN_ANOMALY,EPHEMERIS_TYPE,CLASSIFICATION_TYPE,NORAD_CAT_ID,ELEMENT_SET_NO,REV_AT_EPOCH,BSTAR,MEAN_MOTION_DOT,MEAN_MOTION_DDOT
ONEWEB-0130,2020-100U,2026-06-12T05:37:36.725376,13.12442746,.00017228,87.8948,351.6369,91.8557,268.2769,0,U,47276,999,26399,-.86780542E-3,-.299E-5,0
ONEWEB-0131,2020-100V,2026-06-12T05:32:43.337760,13.12442855,.00017498,87.8937,351.6564,89.7476,270.3853,0,U,47277,999,26403,-.67578768E-3,-.23E-5,0
ONEWEB-0132,2020-100W,2026-06-12T06:14:12.665184,13.12444665,.00017366,87.8940,351.6527,89.0372,271.0956,0,U,47278,999,26393,-.2834893E-3,-.89E-6,0
ONEWEB-0133,2020-100X,2026-06-12T01:09:03.454560,13.12444643,.00016511,87.8950,351.6702,87.2845,272.8473,0,U,47279,999,26406,.12539725E-2,.464E-5,0
ONEWEB-0134,2020-100Y,2026-06-12T05:54:40.612032,13.12442285,.00016039,87.8951,351.6279,96.1823,263.9489,0,U,47280,999,26406,-.17866811E-2,-.63E-5,0
ONEWEB-0135,2020-100Z,2026-06-12T05:13:12.889056,13.12442832,.00014857,87.8938,351.6570,92.5738,267.5561,0,U,47281,999,26408,.69106431E-3,.261E-5,0
ONEWEB-0136,2020-100AA,2026-06-12T05:40:02.484768,13.12443200,.00015521,87.8945,351.6339,97.0427,263.0878,0,U,47282,999,26401,-.99408672E-3,-.345E-5,0
ONEWEB-0137,2020-100AB,2026-06-12T06:28:50.470176,13.12444684,.00019449,87.8950,351.6375,89.2177,270.9174,0,U,47283,999,26392,.67210604E-3,.255E-5,0
ONEWEB-0138,2020-100AC,2026-06-12T05:57:07.600032,13.12443995,.0001673,87.8949,351.6473,96.8801,263.2518,0,U,47284,999,26400,-.11891247E-2,-.415E-5,0
ONEWEB-0139,2020-100AD,2026-06-12T05:06:05.835456,13.12443578,.0001784,87.8946,351.6408,91.2105,268.9228,0,U,47285,999,26407,.96502249E-3,.36E-5,0
ONEWEB-0140,2020-100AE,2026-06-12T05:49:48.213696,13.12443066,.00016812,87.8948,351.6257,85.8945,274.2375,0,U,47286,999,26404,-.13198989E-2,-.462E-5,0
ONEWEB-0141,2020-100AF,2026-06-12T05:05:42.032256,13.12443597,.00021176,87.8948,351.6367,90.2517,269.8854,0,U,47287,999,26402,.9426096E-3,.352E-5,0
ONEWEB-0142,2020-100AG,2026-06-12T01:09:29.311488,13.12442944,.00020799,87.8941,351.6912,98.8881,261.2483,0,U,47288,999,26399,.12130029E-2,.449E-5,0
ONEWEB-0143,2020-100AH,2026-06-12T01:23:53.911968,13.12443407,.00018291,87.8947,351.6877,89.4668,270.6670,0,U,47289,999,26397,.10600697E-2,.394E-5,0
ONEWEB-0144,2020-100AJ,2026-06-12T06:11:47.018976,13.12445129,.00017715,87.8952,351.6219,102.1471,257.9857,0,U,47290,999,26392,-.30113209E-3,-.96E-6,0
ONEWEB-0145,2020-100AK,2026-06-12T05:30:17.426304,13.12442786,.00018075,87.8940,351.6555,92.3106,267.8229,0,U,47291,999,26411,-.52854931E-3,-.177E-5,0
ONEWEB-0146,2020-100AL,2026-06-12T05:25:25.026240,13.12442753,.00017492,87.8947,351.6477,78.4780,281.6544,0,U,47292,999,26402,-.12516973E-3,-.32E-6,0
ONEWEB-0147,2020-100AM,2026-06-12T06:26:24.102528,13.12444814,.00016535,87.8948,351.6212,90.5016,269.6302,0,U,47293,999,26392,.7003476E-3,.265E-5,0
ONEWEB-0115,2021-025A,2026-06-12T03:33:06.884640,13.13469812,.00017725,87.8953,321.2264,93.5555,266.5777,0,U,48042,999,25293,-.49861904E-3,-.169E-5,0
ONEWEB-0152,2021-025B,2026-06-11T22:23:31.428096,13.13469898,.00017465,87.8955,321.2661,91.8700,268.2629,0,U,48043,999,25286,-.76792945E-3,-.268E-5,0
ONEWEB-0153,2021-025C,2026-06-12T03:20:55.338432,13.13469958,.00018537,87.8949,321.2282,97.4917,262.6423,0,U,48044,999,25288,.24306602E-4,.22E-6,0
ONEWEB-0154,2021-025D,2026-06-11T23:36:39.393792,13.13469242,.00017019,87.8951,321.2566,95.4774,264.6549,0,U,48045,999,25282,.12319637E-3,.58E-6,0
ONEWEB-0116,2021-025E,2026-06-11T22:43:00.634368,13.13468986,.00017353,87.8956,321.2607,92.2534,267.8794,0,U,48046,999,25296,-.11968234E-3,-.31E-6,0
ONEWEB-0150,2021-025F,2026-06-12T03:37:59.163744,13.13469320,.00020112,87.8957,321.2170,93.9700,266.1659,0,U,48047,999,25288,-.81189276E-3,-.284E-5,0
ONEWEB-0107,2021-025G,2026-06-12T03:40:25.450176,13.13469130,.0001947,87.8960,321.2127,102.5758,257.5589,0,U,48048,999,25286,-.10092062E-2,-.356E-5,0
ONEWEB-0101,2021-025H,2026-06-12T04:36:29.651904,13.13470351,.00017323,87.8947,321.2212,100.2302,259.9022,0,U,48049,999,25284,.81419573E-3,.31E-5,0
ONEWEB-0113,2021-025J,2026-06-11T23:44:53.655360,13.13894036,.00018338,87.8952,321.1721,92.7246,267.4093,0,U,48050,999,25292,-.33787003E-3,-.111E-5,0
ONEWEB-0112,2021-025K,2026-06-12T03:47:44.160000,13.13469851,.00017237,87.8958,321.2098,103.2606,256.8716,0,U,48051,999,25293,-.98661887E-3,-.348E-5,0
ONEWEB-0156,2021-025L,2026-06-12T03:59:55.269024,13.13469884,.00019341,87.8957,321.2182,98.2394,261.8954,0,U,48052,999,25291,-.89915637E-3,-.316E-5,0
ONEWEB-0161,2021-025M,2026-06-11T23:43:58.040544,13.13469921,.00019283,87.8957,321.2547,99.5203,260.6144,0,U,48053,999,25282,-.29412681E-3,-.95E-6,0
